TRANSPORTER-12 OBJECT AZ
1 62656U 25009AZ  26068.71026235  .00016057  00000+0  54903-3 0  9991
2 62656  97.3981 151.9913 0000987  45.3581 314.7740 15.30349724 63792
STARLINK-35909          
1 66496U 25263M   26068.14794136  .00038250  00000+0  13924-2 0  9994
2 66496  43.0014 353.9595 0001837 274.0825  85.9817 15.27576793 18819
