[{"OBJECT_NAME":"TRANSPORTER-12 OBJECT AZ","OBJECT_ID":"2025-009AZ","EPOCH":"2026-03-09T17:02:46.667040","MEAN_MOTION":15.30349724,"ECCENTRICITY":9.87e-5,"INCLINATION":97.3981,"RA_OF_ASC_NODE":151.9913,"ARG_OF_PERICENTER":45.3581,"MEAN_ANOMALY":314.774,"EPHEMERIS_TYPE":0,"CLASSIFICATION_TYPE":"U","NORAD_CAT_ID":62656,"ELEMENT_SET_NO":999,"REV_AT_EPOCH":6379,"BSTAR":0.00054902545,"MEAN_MOTION_DOT":0.00016057,"MEAN_MOTION_DDOT":0},{"OBJECT_NAME":"STARLINK-35909","OBJECT_ID":"2025-263M","EPOCH":"2026-03-09T03:33:02.133504","MEAN_MOTION":15.27576793,"ECCENTRICITY":0.0001837,"INCLINATION":43.0014,"RA_OF_ASC_NODE":353.9595,"ARG_OF_PERICENTER":274.0825,"MEAN_ANOMALY":85.9817,"EPHEMERIS_TYPE":0,"CLASSIFICATION_TYPE":"U","NORAD_CAT_ID":66496,"ELEMENT_SET_NO":999,"REV_AT_EPOCH":1881,"BSTAR":0.0013924103,"MEAN_MOTION_DOT":0.0003825,"MEAN_MOTION_DDOT":0}]
